[
    {
        "Altitude(m)": 604969.0892275679,
        "Argument of Periapsis(deg)": 0.0,
        "Eccentricity": 0.0,
        "Inclination(deg)": 60.0,
        "Latitude(deg)": -0.09273684068244123,
        "Longitude(deg)": -60.02247230978775,
        "Mean Anomaly(deg)": 0.0,
        "RAAN(deg)": 40.0,
        "Satellite Name": "Test1 176",
        "Satellite Number": 176,
        "Semi-Major Axis(m)": 6980739.136638005,
        "Time(s)": 0
    },
    {
        "Altitude(m)": 604900.0281936179,
        "Argument of Periapsis(deg)": 0.00010418945913296404,
        "Eccentricity": 0.0,
        "Inclination(deg)": 60.0,
        "Latitude(deg)": 0.44768930521162037,
        "Longitude(deg)": -59.754349780566756,
        "Mean Anomaly(deg)": 0.6201061454618275,
        "RAAN(deg)": 39.99957995086026,
        "Satellite Name": "Test1 176",
        "Satellite Number": 176,
        "Semi-Major Axis(m)": 6980739.136638005,
        "Time(s)": 10
    }
]